{
  "type": "FeatureCollection",
  "features": [
    {
      "type": "Feature",
      "properties": {
        "slr_m": 0.5,
        "flooded_fraction": 0.02390710382513661
      },
      "geometry": {
        "type": "Polygon",
        "coordinates": [
          [
            [
              -2.1145,
              57.103
            ],
            [
              -2.0345,
              57.103
            ],
            [
              -2.0345,
              57.183
            ],
            [
              -2.1145,
              57.183
            ],
            [
              -2.1145,
              57.103
            ]
          ]
        ]
      }
    },
    {
      "type": "Feature",
      "properties": {
        "slr_m": 1.0,
        "flooded_fraction": 0.037665886026541764
      },
      "geometry": {
        "type": "Polygon",
        "coordinates": [
          [
            [
              -2.1145,
              57.103
            ],
            [
              -2.0345,
              57.103
            ],
            [
              -2.0345,
              57.183
            ],
            [
              -2.1145,
              57.183
            ],
            [
              -2.1145,
              57.103
            ]
          ]
        ]
      }
    },
    {
      "type": "Feature",
      "properties": {
        "slr_m": 2.0,
        "flooded_fraction": 0.07240437158469945
      },
      "geometry": {
        "type": "Polygon",
        "coordinates": [
          [
            [
              -2.1145,
              57.103
            ],
            [
              -2.0345,
              57.103
            ],
            [
              -2.0345,
              57.183
            ],
            [
              -2.1145,
              57.183
            ],
            [
              -2.1145,
              57.103
            ]
          ]
        ]
      }
    }
  ]
}