{
  "type": "FeatureCollection",
  "features": [
    {
      "type": "Feature",
      "properties": {
        "slr_m": 0.5,
        "flooded_fraction": 0.025167785234899327
      },
      "geometry": {
        "type": "Polygon",
        "coordinates": [
          [
            [
              -5.5817,
              50.062
            ],
            [
              -5.5017,
              50.062
            ],
            [
              -5.5017,
              50.141999999999996
            ],
            [
              -5.5817,
              50.141999999999996
            ],
            [
              -5.5817,
              50.062
            ]
          ]
        ]
      }
    },
    {
      "type": "Feature",
      "properties": {
        "slr_m": 1.0,
        "flooded_fraction": 0.04194630872483222
      },
      "geometry": {
        "type": "Polygon",
        "coordinates": [
          [
            [
              -5.5817,
              50.062
            ],
            [
              -5.5017,
              50.062
            ],
            [
              -5.5017,
              50.141999999999996
            ],
            [
              -5.5817,
              50.141999999999996
            ],
            [
              -5.5817,
              50.062
            ]
          ]
        ]
      }
    },
    {
      "type": "Feature",
      "properties": {
        "slr_m": 2.0,
        "flooded_fraction": 0.08263422818791946
      },
      "geometry": {
        "type": "Polygon",
        "coordinates": [
          [
            [
              -5.5817,
              50.062
            ],
            [
              -5.5017,
              50.062
            ],
            [
              -5.5017,
              50.141999999999996
            ],
            [
              -5.5817,
              50.141999999999996
            ],
            [
              -5.5817,
              50.062
            ]
          ]
        ]
      }
    }
  ]
}