{
  "type": "FeatureCollection",
  "features": [
    {
      "type": "Feature",
      "properties": {
        "slr_m": 0.5,
        "flooded_fraction": 0.02133651958692498
      },
      "geometry": {
        "type": "Polygon",
        "coordinates": [
          [
            [
              0.70306,
              51.402
            ],
            [
              0.7830600000000001,
              51.402
            ],
            [
              0.7830600000000001,
              51.482
            ],
            [
              0.70306,
              51.482
            ],
            [
              0.70306,
              51.402
            ]
          ]
        ]
      }
    },
    {
      "type": "Feature",
      "properties": {
        "slr_m": 1.0,
        "flooded_fraction": 0.10181787146880601
      },
      "geometry": {
        "type": "Polygon",
        "coordinates": [
          [
            [
              0.70306,
              51.402
            ],
            [
              0.7830600000000001,
              51.402
            ],
            [
              0.7830600000000001,
              51.482
            ],
            [
              0.70306,
              51.482
            ],
            [
              0.70306,
              51.402
            ]
          ]
        ]
      }
    },
    {
      "type": "Feature",
      "properties": {
        "slr_m": 2.0,
        "flooded_fraction": 0.42779721771784585
      },
      "geometry": {
        "type": "Polygon",
        "coordinates": [
          [
            [
              0.70306,
              51.402
            ],
            [
              0.7830600000000001,
              51.402
            ],
            [
              0.7830600000000001,
              51.482
            ],
            [
              0.70306,
              51.482
            ],
            [
              0.70306,
              51.402
            ]
          ]
        ]
      }
    }
  ]
}