{
  "type": "FeatureCollection",
  "features": [
    {
      "type": "Feature",
      "properties": {
        "slr_m": 0.5,
        "flooded_fraction": 0.051489060708797774
      },
      "geometry": {
        "type": "Polygon",
        "coordinates": [
          [
            [
              4.08,
              51.937
            ],
            [
              4.16,
              51.937
            ],
            [
              4.16,
              52.016999999999996
            ],
            [
              4.08,
              52.016999999999996
            ],
            [
              4.08,
              51.937
            ]
          ]
        ]
      }
    },
    {
      "type": "Feature",
      "properties": {
        "slr_m": 1.0,
        "flooded_fraction": 0.15671113929608038
      },
      "geometry": {
        "type": "Polygon",
        "coordinates": [
          [
            [
              4.08,
              51.937
            ],
            [
              4.16,
              51.937
            ],
            [
              4.16,
              52.016999999999996
            ],
            [
              4.08,
              52.016999999999996
            ],
            [
              4.08,
              51.937
            ]
          ]
        ]
      }
    },
    {
      "type": "Feature",
      "properties": {
        "slr_m": 2.0,
        "flooded_fraction": 0.3471548086538696
      },
      "geometry": {
        "type": "Polygon",
        "coordinates": [
          [
            [
              4.08,
              51.937
            ],
            [
              4.16,
              51.937
            ],
            [
              4.16,
              52.016999999999996
            ],
            [
              4.08,
              52.016999999999996
            ],
            [
              4.08,
              51.937
            ]
          ]
        ]
      }
    }
  ]
}